start=new Date('2021-11-15T00:00:00.000Z').valueOf();
sats=[{"LAUNCH_DATE":"2020-01-07","PERIOD":"95.592","REV_AT_EPOCH":"10362","ARG_OF_PERICENTER":"70.5423","TLE_LINE2":"2 44933  53.0545 220.7690 0001854  70.5423 289.5766 15.06395382103629","APOAPSIS":"548.512","SITE":"AFETR","REF_FRAME":"TEME","MEAN_MOTION_DDOT":"0.0000000000000","EPHEMERIS_TYPE":"0","RCS_SIZE":"LARGE","MEAN_MOTION":"15.06395382","OBJECT_ID":"2020-001V","RA_OF_ASC_NODE":"220.7690","MEAN_MOTION_DOT":"-0.00000605","GP_ID":"189771197","CENTER_NAME":"EARTH","SEMIMAJOR_AXIS":"6925.363","BSTAR":"-0.00002168800000","CLASSIFICATION_TYPE":"U","NORAD_CAT_ID":"44933","ECCENTRICITY":"0.00018540","OBJECT_TYPE":"PAYLOAD","TIME_SYSTEM":"UTC","TLE_LINE1":"1 44933U 20001V   21318.86637954 -.00000605  00000-0 -21688-4 0  9991","OBJECT_NAME":"STARLINK-1144","MEAN_ANOMALY":"289.5766","INCLINATION":"53.0545","ELEMENT_SET_NO":"999","MEAN_ELEMENT_THEORY":"SGP4","COUNTRY_CODE":"US","FILE":"3215179","DECAY_DATE":null,"EPOCH":"2021-11-14T20:47:35.192256","PERIAPSIS":"545.944"},{"OBJECT_NAME":"STARLINK-1071","INCLINATION":"53.0540","MEAN_ANOMALY":"281.2373","TLE_LINE1":"1 44934U 20001W   21318.94562221  .00001419  00000-0  11415-3 0  9993","OBJECT_TYPE":"PAYLOAD","ECCENTRICITY":"0.00019120","TIME_SYSTEM":"UTC","BSTAR":"0.00011415000000","CLASSIFICATION_TYPE":"U","NORAD_CAT_ID":"44934","EPOCH":"2021-11-14T22:41:41.758944","PERIAPSIS":"545.880","MEAN_ELEMENT_THEORY":"SGP4","COUNTRY_CODE":"US","DECAY_DATE":null,"FILE":"3215179","ELEMENT_SET_NO":"999","SITE":"AFETR","TLE_LINE2":"2 44934  53.0540 200.4124 0001912  78.8830 281.2373 15.06403120102622","APOAPSIS":"548.528","REV_AT_EPOCH":"10262","ARG_OF_PERICENTER":"78.8830","LAUNCH_DATE":"2020-01-07","PERIOD":"95.592","SEMIMAJOR_AXIS":"6925.339","GP_ID":"189771447","RA_OF_ASC_NODE":"200.4124","MEAN_MOTION_DOT":"0.00001419","CENTER_NAME":"EARTH","EPHEMERIS_TYPE":"0","OBJECT_ID":"2020-001W","MEAN_MOTION":"15.06403120","RCS_SIZE":"LARGE","MEAN_MOTION_DDOT":"0.0000000000000","REF_FRAME":"TEME"},{"EPHEMERIS_TYPE":"0","RCS_SIZE":"LARGE","MEAN_MOTION":"15.93371758","OBJECT_ID":"2020-001X","REF_FRAME":"TEME","MEAN_MOTION_DDOT":"0.0001789600000","SEMIMAJOR_AXIS":"6670.992","MEAN_MOTION_DOT":"0.00642035","RA_OF_ASC_NODE":"162.8017","GP_ID":"189772199","CENTER_NAME":"EARTH","REV_AT_EPOCH":"10315","ARG_OF_PERICENTER":"46.2086","LAUNCH_DATE":"2020-01-07","PERIOD":"90.374","SITE":"AFETR","TLE_LINE2":"2 44935  53.0499 162.8017 0000437  46.2086 313.8977 15.93371758103159","APOAPSIS":"293.149","MEAN_ELEMENT_THEORY":"SGP4","COUNTRY_CODE":"US","FILE":"3215179","DECAY_DATE":null,"ELEMENT_SET_NO":"999","EPOCH":"2021-11-14T22:17:19.345632","PERIAPSIS":"292.566","OBJECT_TYPE":"PAYLOAD","ECCENTRICITY":"0.00004370","TIME_SYSTEM":"UTC","BSTAR":"0.00177020000000","CLASSIFICATION_TYPE":"U","NORAD_CAT_ID":"44935","OBJECT_NAME":"STARLINK-1072","INCLINATION":"53.0499","MEAN_ANOMALY":"313.8977","TLE_LINE1":"1 44935U 20001X   21318.92869613  .00642035  17896-3  17702-2 0  9990"},{"PERIAPSIS":"546.190","EPOCH":"2021-11-14T22:09:52.078752","DECAY_DATE":null,"FILE":"3215179","COUNTRY_CODE":"US","MEAN_ELEMENT_THEORY":"SGP4","ELEMENT_SET_NO":"999","MEAN_ANOMALY":"284.2068","INCLINATION":"53.0534","OBJECT_NAME":"STARLINK-1079","TLE_LINE1":"1 44937U 20001Z   21318.92351943 -.00000618  00000-0 -22620-4 0  9994","TIME_SYSTEM":"UTC","OBJECT_TYPE":"PAYLOAD","ECCENTRICITY":"0.00015200","NORAD_CAT_ID":"44937","BSTAR":"-0.00002262000000","CLASSIFICATION_TYPE":"U","SEMIMAJOR_AXIS":"6925.378","CENTER_NAME":"EARTH","GP_ID":"189772949","MEAN_MOTION_DOT":"-0.00000618","RA_OF_ASC_NODE":"200.5180","OBJECT_ID":"2020-001Z","MEAN_MOTION":"15.06390381","RCS_SIZE":"LARGE","EPHEMERIS_TYPE":"0","MEAN_MOTION_DDOT":"0.0000000000000","REF_FRAME":"TEME","SITE":"AFETR","TLE_LINE2":"2 44937  53.0534 200.5180 0001520  75.9090 284.2068 15.06390381102620","APOAPSIS":"548.296","ARG_OF_PERICENTER":"75.9090","REV_AT_EPOCH":"10262","PERIOD":"95.593","LAUNCH_DATE":"2020-01-07"},{"APOAPSIS":"548.446","TLE_LINE2":"2 44938  53.0538 200.3609 0001748  77.4990 282.6195 15.06392936102628","SITE":"AFETR","LAUNCH_DATE":"2020-01-07","PERIOD":"95.593","REV_AT_EPOCH":"10262","ARG_OF_PERICENTER":"77.4990","MEAN_MOTION_DOT":"-0.00000703","RA_OF_ASC_NODE":"200.3609","GP_ID":"189771697","CENTER_NAME":"EARTH","SEMIMAJOR_AXIS":"6925.370","REF_FRAME":"TEME","MEAN_MOTION_DDOT":"0.0000000000000","EPHEMERIS_TYPE":"0","RCS_SIZE":"LARGE","MEAN_MOTION":"15.06392936","OBJECT_ID":"2020-001AA","TLE_LINE1":"1 44938U 20001AA  21318.95668757 -.00000703  00000-0 -28274-4 0  9998","OBJECT_NAME":"STARLINK-1082","MEAN_ANOMALY":"282.6195","INCLINATION":"53.0538","BSTAR":"-0.00002827400000","CLASSIFICATION_TYPE":"U","NORAD_CAT_ID":"44938","ECCENTRICITY":"0.00017480","OBJECT_TYPE":"PAYLOAD","TIME_SYSTEM":"UTC","EPOCH":"2021-11-14T22:57:37.806048","PERIAPSIS":"546.025","ELEMENT_SET_NO":"999","MEAN_ELEMENT_THEORY":"SGP4","COUNTRY_CODE":"US","FILE":"3215179","DECAY_DATE":null},{"MEAN_MOTION_DDOT":"0.0000000000000","REF_FRAME":"TEME","MEAN_MOTION":"15.06391786","OBJECT_ID":"2020-001AB","RCS_SIZE":"LARGE","EPHEMERIS_TYPE":"0","CENTER_NAME":"EARTH","GP_ID":"189771947","RA_OF_ASC_NODE":"200.6343","MEAN_MOTION_DOT":"-0.00000717","SEMIMAJOR_AXIS":"6925.374","PERIOD":"95.593","LAUNCH_DATE":"2020-01-07","ARG_OF_PERICENTER":"68.7074","REV_AT_EPOCH":"10261","TLE_LINE2":"2 44939  53.0525 200.6343 0001470  68.7074 291.4071 15.06391786102613","APOAPSIS":"548.257","SITE":"AFETR","ELEMENT_SET_NO":"999","DECAY_DATE":null,"FILE":"3215179","MEAN_ELEMENT_THEORY":"SGP4","COUNTRY_CODE":"US","PERIAPSIS":"546.221","EPOCH":"2021-11-14T21:32:42.760032","NORAD_CAT_ID":"44939","CLASSIFICATION_TYPE":"U","BSTAR":"-0.00002928200000","TIME_SYSTEM":"UTC","ECCENTRICITY":"0.00014700","OBJECT_TYPE":"PAYLOAD","TLE_LINE1":"1 44939U 20001AB  21318.89771713 -.00000717  00000-0 -29282-4 0  9994","INCLINATION":"53.0525","MEAN_ANOMALY":"291.4071","OBJECT_NAME":"STARLINK-1083"},{"ARG_OF_PERICENTER":"72.4066","REV_AT_EPOCH":"10261","PERIOD":"95.593","LAUNCH_DATE":"2020-01-07","SITE":"AFETR","APOAPSIS":"548.443","TLE_LINE2":"2 44940  53.0538 200.5754 0001715  72.4066 287.7110 15.06386267102619","RCS_SIZE":"LARGE","MEAN_MOTION":"15.06386267","OBJECT_ID":"2020-001AC","EPHEMERIS_TYPE":"0","REF_FRAME":"TEME","MEAN_MOTION_DDOT":"0.0000000000000","SEMIMAJOR_AXIS":"6925.391","CENTER_NAME":"EARTH","RA_OF_ASC_NODE":"200.5754","MEAN_MOTION_DOT":"-0.00000762","GP_ID":"189772699","TIME_SYSTEM":"UTC","OBJECT_TYPE":"PAYLOAD","ECCENTRICITY":"0.00017150","NORAD_CAT_ID":"44940","CLASSIFICATION_TYPE":"U","BSTAR":"-0.00003227100000","MEAN_ANOMALY":"287.7110","INCLINATION":"53.0538","OBJECT_NAME":"STARLINK-1091","TLE_LINE1":"1 44940U 20001AC  21318.90877408 -.00000762  00000-0 -32271-4 0  9998","FILE":"3215179","DECAY_DATE":null,"COUNTRY_CODE":"US","MEAN_ELEMENT_THEORY":"SGP4","ELEMENT_SET_NO":"999","PERIAPSIS":"546.068","EPOCH":"2021-11-14T21:48:38.080512"},{"PERIAPSIS":"546.122","EPOCH":"2021-11-14T22:20:29.114592","DECAY_DATE":null,"FILE":"3215179","COUNTRY_CODE":"US","MEAN_ELEMENT_THEORY":"SGP4","ELEMENT_SET_NO":"999","INCLINATION":"53.0537","MEAN_ANOMALY":"294.4723","OBJECT_NAME":"STARLINK-1094","TLE_LINE1":"1 44941U 20001AD  21318.93089253 -.00000668  00000-0 -25956-4 0  9992","TIME_SYSTEM":"UTC","ECCENTRICITY":"0.00016400","OBJECT_TYPE":"PAYLOAD","NORAD_CAT_ID":"44941","CLASSIFICATION_TYPE":"U","BSTAR":"-0.00002595600000","SEMIMAJOR_AXIS":"6925.393","CENTER_NAME":"EARTH","GP_ID":"189772450","RA_OF_ASC_NODE":"200.4770","MEAN_MOTION_DOT":"-0.00000668","MEAN_MOTION":"15.06385580","OBJECT_ID":"2020-001AD","RCS_SIZE":"LARGE","EPHEMERIS_TYPE":"0","MEAN_MOTION_DDOT":"0.0000000000000","REF_FRAME":"TEME","SITE":"AFETR","APOAPSIS":"548.394","TLE_LINE2":"2 44941  53.0537 200.4770 0001640  65.6437 294.4723 15.06385580102622","ARG_OF_PERICENTER":"65.6437","REV_AT_EPOCH":"10262","PERIOD":"95.593","LAUNCH_DATE":"2020-01-07"},{"FILE":"3215179","DECAY_DATE":null,"MEAN_ELEMENT_THEORY":"SGP4","COUNTRY_CODE":"US","ELEMENT_SET_NO":"999","PERIAPSIS":"546.156","EPOCH":"2021-11-14T21:59:15.035136","TIME_SYSTEM":"UTC","OBJECT_TYPE":"PAYLOAD","ECCENTRICITY":"0.00015700","NORAD_CAT_ID":"44942","BSTAR":"0.00009859900000","CLASSIFICATION_TYPE":"U","MEAN_ANOMALY":"290.6322","INCLINATION":"53.0531","OBJECT_NAME":"STARLINK-1096","TLE_LINE1":"1 44942U 20001AE  21318.91614624  .00001187  00000-0  98599-4 0  9995","RCS_SIZE":"LARGE","MEAN_MOTION":"15.06390401","OBJECT_ID":"2020-001AE","EPHEMERIS_TYPE":"0","REF_FRAME":"TEME","MEAN_MOTION_DDOT":"0.0000000000000","SEMIMAJOR_AXIS":"6925.378","CENTER_NAME":"EARTH","MEAN_MOTION_DOT":"0.00001187","RA_OF_ASC_NODE":"200.5497","GP_ID":"189771198","ARG_OF_PERICENTER":"69.4835","REV_AT_EPOCH":"10262","PERIOD":"95.593","LAUNCH_DATE":"2020-01-07","SITE":"AFETR","APOAPSIS":"548.330","TLE_LINE2":"2 44942  53.0531 200.5497 0001570  69.4835 290.6322 15.06390401102621"},{"TLE_LINE2":"2 44943  53.0533 200.6486 0001638  77.4945 282.6227 15.06406700102613","APOAPSIS":"548.327","SITE":"AFETR","PERIOD":"95.592","LAUNCH_DATE":"2020-01-07","ARG_OF_PERICENTER":"77.4945","REV_AT_EPOCH":"10261","CENTER_NAME":"EARTH","GP_ID":"189771448","RA_OF_ASC_NODE":"200.6486","MEAN_MOTION_DOT":"0.00002103","SEMIMAJOR_AXIS":"6925.328","MEAN_MOTION_DDOT":"0.0000000000000","REF_FRAME":"TEME","OBJECT_ID":"2020-001AF","MEAN_MOTION":"15.06406700","RCS_SIZE":"LARGE","EPHEMERIS_TYPE":"0","TLE_LINE1":"1 44943U 20001AF  21318.89401608  .00002103  00000-0  15999-3 0  9990","INCLINATION":"53.0533","MEAN_ANOMALY":"282.6227","OBJECT_NAME":"STARLINK-1100","NORAD_CAT_ID":"44943","CLASSIFICATION_TYPE":"U","BSTAR":"0.00015999000000","TIME_SYSTEM":"UTC","OBJECT_TYPE":"PAYLOAD","ECCENTRICITY":"0.00016380","PERIAPSIS":"546.059","EPOCH":"2021-11-14T21:27:22.989312","ELEMENT_SET_NO":"999","DECAY_DATE":null,"FILE":"3215179","MEAN_ELEMENT_THEORY":"SGP4","COUNTRY_CODE":"US"}];
